NORAD_CAT_ID,OBJECT_NAME,OBJECT_TYPE,EPOCH,MEAN_MOTION,ECCENTRICITY,INCLINATION,RA_OF_ASC_NODE,ARG_OF_PERICENTER,MEAN_ANOMALY,BSTAR,MEAN_MOTION_DOT,MEAN_MOTION_DDOT,TLE_LINE0,TLE_LINE1,TLE_LINE2,SEMIMAJOR_AXIS,PERIOD,APOGEE,PERIGEE,DECAYED
52266.0,STARLINK-3739,PAYLOAD,2023-05-03 08:10:38,15.08843232,0.0001294,53.2165,103.9138,87.3152,272.7988,0.0001165,1.567e-05,0.0,0 STARLINK-3739,1 52266U 22041F   23123.34071996  .00001567  00000-0  11650-3 0  9995,2 52266  53.2165 103.9138 0001294  87.3152 272.7988 15.08843232 58385,6917.871,95.437,540.631,538.84,0.0
52266.0,STARLINK-3739,PAYLOAD,2023-05-03 22:29:06,15.0884132,0.0001305,53.2163,101.2381,85.4661,274.648,9.7197e-05,1.259e-05,0.0,0 STARLINK-3739,1 52266U 22041F   23123.93688121  .00001259  00000-0  97197-4 0  9993,2 52266  53.2163 101.2381 0001305  85.4661 274.6480 15.08841320 57249,6917.876,95.437,540.644,538.839,0.0
52266.0,STARLINK-3739,PAYLOAD,2023-05-04 08:01:24,15.08848035,0.0001253,53.2161,99.4531,89.1279,270.9856,0.0001037,1.363e-05,0.0,0 STARLINK-3739,1 52266U 22041F   23124.33431559  .00001363  00000-0  10370-3 0  9992,2 52266  53.2161  99.4531 0001253  89.1279 270.9856 15.08848035 57303,6917.856,95.437,540.588,538.854,0.0
52266.0,STARLINK-3739,PAYLOAD,2023-05-05 04:41:26,15.08841547,0.0001267,53.2171,95.5868,92.7644,267.3493,2.6984e-05,1.42e-06,0.0,0 STARLINK-3739,1 52266U 22041F   23125.19544109  .00000142  00000-0  26984-4 0  9996,2 52266  53.2171  95.5868 0001267  92.7644 267.3493 15.08841547 58663,6917.876,95.437,540.617,538.864,0.0
52266.0,STARLINK-3739,PAYLOAD,2023-05-05 07:52:12,15.08844637,0.0001254,53.217,94.9937,92.2985,267.815,7.4818e-05,9.03e-06,0.0,0 STARLINK-3739,1 52266U 22041F   23125.32791808  .00000903  00000-0  74818-4 0  9995,2 52266  53.2170  94.9937 0001254  92.2985 267.8150 15.08844637 57455,6917.866,95.437,540.599,538.864,0.0
52266.0,STARLINK-3739,PAYLOAD,2023-05-06 07:42:59,15.08843414,0.0001078,53.2163,90.5336,88.2501,271.8615,6.3519e-05,7.23e-06,0.0,0 STARLINK-3739,1 52266U 22041F   23126.32152117  .00000723  00000-0  63519-4 0  9996,2 52266  53.2163  90.5336 0001078  88.2501 271.8615 15.08843414 57605,6917.87,95.437,540.481,538.989,0.0
52266.0,STARLINK-3739,PAYLOAD,2023-05-07 02:47:36,15.088488,0.0001112,53.2161,86.9652,89.8833,270.2287,0.00011414,1.53e-05,0.0,0 STARLINK-3739,1 52266U 22041F   23127.11639642  .00001530  00000-0  11414-3 0  9990,2 52266  53.2161  86.9652 0001112  89.8833 270.2287 15.08848800 58958,6917.853,95.437,540.488,538.949,0.0
52266.0,STARLINK-3739,PAYLOAD,2023-05-07 04:22:59,15.08851518,0.000109,53.2162,86.668,89.9442,270.1675,0.00013719,1.897e-05,0.0,0 STARLINK-3739,1 52266U 22041F   23127.18263405  .00001897  00000-0  13719-3 0  9993,2 52266  53.2162  86.6680 0001090  89.9442 270.1675 15.08851518 57734,6917.845,95.437,540.464,538.956,0.0
52266.0,STARLINK-3739,PAYLOAD,2023-05-08 04:13:48,15.08834303,0.0001057,53.2167,82.2066,88.3703,271.741,5.9119e-05,6.53e-06,0.0,0 STARLINK-3739,1 52266U 22041F   23128.17625171  .00000653  00000-0  59119-4 0  9999,2 52266  53.2167  82.2066 0001057  88.3703 271.7410 15.08834303 59116,6917.898,95.438,540.494,539.032,0.0
52266.0,STARLINK-3739,PAYLOAD,2023-05-08 13:46:06,15.08837148,0.0001155,53.2165,80.4226,96.7096,263.4027,2.8527e-05,1.66e-06,0.0,0 STARLINK-3739,1 52266U 22041F   23128.57368781  .00000166  00000-0  28527-4 0  9992,2 52266  53.2165  80.4226 0001155  96.7096 263.4027 15.08837148 57940,6917.889,95.438,540.553,538.955,0.0
52266.0,STARLINK-3739,PAYLOAD,2023-05-09 04:04:34,15.08848445,0.0001167,53.2166,77.747,106.0492,254.0629,0.00014134,1.963e-05,0.0,0 STARLINK-3739,1 52266U 22041F   23129.16984271  .00001963  00000-0  14134-3 0  9990,2 52266  53.2166  77.7470 0001167 106.0492 254.0629 15.08848445 59262,6917.855,95.437,540.527,538.912,0.0
52266.0,STARLINK-3739,PAYLOAD,2023-05-10 03:55:21,15.08843049,0.0001104,53.2168,73.2859,101.8005,258.3111,0.00020246,2.936e-05,0.0,0 STARLINK-3739,1 52266U 22041F   23130.16344824  .00002936  00000-0  20246-3 0  9998,2 52266  53.2168  73.2859 0001104 101.8005 258.3111 15.08843049 58188,6917.871,95.437,540.5,538.972,0.0
52266.0,STARLINK-3739,PAYLOAD,2023-05-11 02:10:45,15.08842553,0.0001187,53.2173,69.1235,101.6411,258.4714,0.00014273,1.985e-05,0.0,0 STARLINK-3739,1 52266U 22041F   23131.09080945  .00001985  00000-0  14273-3 0  9998,2 52266  53.2173  69.1235 0001187 101.6411 258.4714 15.08842553 58321,6917.873,95.437,540.559,538.916,0.0
52266.0,STARLINK-3739,PAYLOAD,2023-05-12 02:01:33,15.0883545,0.0001145,53.2173,64.6633,85.0222,275.0901,6.1944e-05,6.98e-06,0.0,0 STARLINK-3739,1 52266U 22041F   23132.08441709  .00000698  00000-0  61944-4 0  9995,2 52266  53.2173  64.6633 0001145  85.0222 275.0901 15.08835450 59706,6917.894,95.438,540.551,538.967,0.0
52266.0,STARLINK-3739,PAYLOAD,2023-05-13 01:52:20,15.08851794,0.0001173,53.2167,60.2005,87.977,272.1357,0.00086309,0.00013479,0.0,0 STARLINK-3739,1 52266U 22041F   23133.07801342  .00013479  00000-0  86309-3 0  9990,2 52266  53.2167  60.2005 0001173  87.9770 272.1357 15.08851794 59852,6917.844,95.437,540.521,538.898,0.0
52266.0,STARLINK-3739,PAYLOAD,2023-05-14 01:43:07,15.0884614,8.31e-05,53.217,55.7398,81.0849,279.0237,0.00018076,2.591e-05,0.0,0 STARLINK-3739,1 52266U 22041F   23134.07161272  .00002591  00000-0  18076-3 0  9991,2 52266  53.2170  55.7398 0000831  81.0849 279.0237 15.08846140 60003,6917.862,95.437,540.301,539.152,0.0
52266.0,STARLINK-3739,PAYLOAD,2023-05-14 19:12:21,15.0884165,0.0001097,53.2178,52.4748,108.0796,252.0316,-6.7275e-05,-1.358e-05,0.0,0 STARLINK-3739,1 52266U 22041F   23134.80025287 -.00001358  00000-0 -67275-4 0  9995,2 52266  53.2178  52.4748 0001097 108.0796 252.0316 15.08841650 58883,6917.875,95.437,540.499,538.981,0.0
52266.0,STARLINK-3739,PAYLOAD,2023-05-15 01:33:54,15.08843685,0.0001091,53.2178,51.285,107.5853,252.5258,2.1242e-05,5e-07,0.0,0 STARLINK-3739,1 52266U 22041F   23135.06521188  .00000050  00000-0  21242-4 0  9995,2 52266  53.2178  51.2850 0001091 107.5853 252.5258 15.08843685 60159,6917.869,95.437,540.489,538.979,0.0
52266.0,STARLINK-3739,PAYLOAD,2023-05-15 11:06:13,15.08841875,0.0001028,53.2179,49.5013,109.696,250.4143,7.377e-05,8.87e-06,0.0,0 STARLINK-3739,1 52266U 22041F   23135.46265284  .00000887  00000-0  73770-4 0  9992,2 52266  53.2179  49.5013 0001028 109.6960 250.4143 15.08841875 58980,6917.875,95.437,540.451,539.029,0.0
52266.0,STARLINK-3739,PAYLOAD,2023-05-16 03:00:04,15.08840521,9.17e-05,53.2169,46.5252,99.3741,260.7355,8.7238e-05,1.101e-05,0.0,0 STARLINK-3739,1 52266U 22041F   23136.12505521  .00001101  00000-0  87238-4 0  9991,2 52266  53.2169  46.5252 0000917  99.3741 260.7355 15.08840521 60315,6917.879,95.438,540.378,539.109,0.0
52266.0,STARLINK-3739,PAYLOAD,2023-05-16 22:04:42,15.08838178,8.52e-05,53.2164,42.9578,94.6605,265.4484,2.2528e-05,7.1e-07,0.0,0 STARLINK-3739,1 52266U 22041F   23136.91993768  .00000071  00000-0  22528-4 0  9998,2 52266  53.2164  42.9578 0000852  94.6605 265.4484 15.08838178 59202,6917.886,95.438,540.34,539.162,0.0
52266.0,STARLINK-3739,PAYLOAD,2023-05-17 15:33:57,15.08834429,9.41e-05,53.217,39.6861,78.9792,281.1306,8.5903e-05,1.079e-05,0.0,0 STARLINK-3739,1 52266U 22041F   23137.64858206  .00001079  00000-0  85903-4 0  9991,2 52266  53.2170  39.6861 0000941  78.9792 281.1306 15.08834429 60540,6917.897,95.438,540.413,539.111,0.0
52266.0,STARLINK-3739,PAYLOAD,2023-05-17 21:55:30,15.08835903,9.63e-05,53.2171,38.4963,81.0776,279.0325,9.7894e-05,1.27e-05,0.0,0 STARLINK-3739,1 52266U 22041F   23137.91354240  .00001270  00000-0  97894-4 0  9995,2 52266  53.2171  38.4963 0000963  81.0776 279.0325 15.08835903 59354,6917.893,95.438,540.424,539.092,0.0
52266.0,STARLINK-3739,PAYLOAD,2023-05-18 02:41:40,15.08821159,9.98e-05,53.2178,37.6021,73.0729,287.0372,-0.00017541,-3.077e-05,0.0,0 STARLINK-3739,1 52266U 22041F   23138.11227094 -.00003077  00000-0 -17541-3 0  9993,2 52266  53.2178  37.6021 0000998  73.0729 287.0372 15.08821159 60614,6917.938,95.439,540.493,539.113,0.0
52266.0,STARLINK-3739,PAYLOAD,2023-05-18 17:00:08,15.088268,9.11e-05,53.2177,34.9271,77.6813,282.4281,-9.179e-05,-1.748e-05,0.0,0 STARLINK-3739,1 52266U 22041F   23138.70843439 -.00001748  00000-0 -91790-4 0  9997,2 52266  53.2177  34.9271 0000911  77.6813 282.4281 15.08826800 59477,6917.921,95.438,540.416,539.156,0.0
52266.0,STARLINK-3739,PAYLOAD,2023-05-19 02:32:27,15.08834513,0.0001045,53.2174,33.1448,67.3207,292.7895,8.1426e-05,1.008e-05,0.0,0 STARLINK-3739,1 52266U 22041F   23139.10587406  .00001008  00000-0  81426-4 0  9993,2 52266  53.2174  33.1448 0001045  67.3207 292.7895 15.08834513 60762,6917.897,95.438,540.485,539.039,0.0
52266.0,STARLINK-3739,PAYLOAD,2023-05-19 21:37:04,15.08860447,9.09e-05,53.2181,29.5769,69.8128,290.2962,0.00022356,3.274e-05,0.0,0 STARLINK-3739,1 52266U 22041F   23139.90074197  .00003274  00000-0  22356-3 0  9992,2 52266  53.2181  29.5769 0000909  69.8128 290.2962 15.08860447 59651,6917.818,95.436,540.312,539.054,0.0
52266.0,STARLINK-3739,PAYLOAD,2023-05-19 23:12:27,15.08863114,8.83e-05,53.2182,29.2784,80.6381,279.4711,0.00050075,7.696e-05,0.0,0 STARLINK-3739,1 52266U 22041F   23139.96698375  .00007696  00000-0  50075-3 0  9999,2 52266  53.2182  29.2784 0000883  80.6381 279.4711 15.08863114 60892,6917.81,95.436,540.286,539.064,0.0
52266.0,STARLINK-3739,PAYLOAD,2023-05-20 19:52:27,15.08866557,8.14e-05,53.218,25.4116,77.479,282.6293,0.00035045,5.298e-05,0.0,0 STARLINK-3739,1 52266U 22041F   23140.82809443  .00005298  00000-0  35045-3 0  9992,2 52266  53.2180  25.4116 0000814  77.4790 282.6293 15.08866557 59791,6917.799,95.436,540.227,539.101,0.0
52266.0,STARLINK-3739,PAYLOAD,2023-05-21 02:13:59,15.08875903,7.94e-05,53.2177,24.2225,90.022,270.0863,0.00047745,7.326e-05,0.0,0 STARLINK-3739,1 52266U 22041F   23141.09304683  .00007326  00000-0  47745-3 0  9992,2 52266  53.2177  24.2225 0000794  90.0220 270.0863 15.08875903 61063,6917.771,95.435,540.185,539.086,0.0
